[{"OBJECT_NAME":"STARLINK-4434","OBJECT_ID":"2022-099AN","EPOCH":"2026-03-09T20:53:08.550240","MEAN_MOTION":15.01260791,"ECCENTRICITY":0.00032518,"INCLINATION":97.6017,"RA_OF_ASC_NODE":190.4041,"ARG_OF_PERICENTER":88.8351,"MEAN_ANOMALY":271.3246,"EPHEMERIS_TYPE":0,"CLASSIFICATION_TYPE":"U","NORAD_CAT_ID":53501,"ELEMENT_SET_NO":999,"REV_AT_EPOCH":19601,"BSTAR":4.2660868e-5,"MEAN_MOTION_DOT":4.9e-6,"MEAN_MOTION_DDOT":0},{"OBJECT_NAME":"LEMUR-2-ALISIA","OBJECT_ID":"2025-009DB","EPOCH":"2026-03-09T17:42:17.671392","MEAN_MOTION":15.01147598,"ECCENTRICITY":0.00065821,"INCLINATION":97.7037,"RA_OF_ASC_NODE":151.6973,"ARG_OF_PERICENTER":159.9869,"MEAN_ANOMALY":200.1615,"EPHEMERIS_TYPE":0,"CLASSIFICATION_TYPE":"U","NORAD_CAT_ID":62706,"ELEMENT_SET_NO":999,"REV_AT_EPOCH":8523,"BSTAR":0.00072005311,"MEAN_MOTION_DOT":9.177e-5,"MEAN_MOTION_DDOT":0}]
